<?xml version="1.0" encoding="UTF-8"?>
<gpx xmlns="http://www.topografix.com/GPX/1/1" xmlns:gpxtpx="http://www.garmin.com/xmlschemas/TrackPointExtension/v1" xmlns:xsi="http://www.w3.org/2001/XMLSchema-instance" xsi:schemaLocation="http://www.topografix.com/GPX/1/1 http://www.topografix.com/GPX/1/1/gpx.xsd" version="1.1" creator="gpx.py -- https://github.com/tkrajina/gpxpy">
  <trk>
    <name>gpx from keep</name>
    <trkseg>
      <trkpt lat="31.48887355217211" lon="120.26177767414023">
        <time>2026-03-13T11:13:41Z</time>
      </trkpt>
      <trkpt lat="31.488940544028093" lon="120.26177266832576">
        <time>2026-03-13T11:13:44Z</time>
      </trkpt>
      <trkpt lat="31.489015532044828" lon="120.26177166188081">
        <time>2026-03-13T11:13:47Z</time>
      </trkpt>
      <trkpt lat="31.489057536854585" lon="120.26175265800464">
        <time>2026-03-13T11:13:50Z</time>
      </trkpt>
      <trkpt lat="31.48910554313983" lon="120.26172965353527">
        <time>2026-03-13T11:13:53Z</time>
      </trkpt>
      <trkpt lat="31.489191546764978" lon="120.26170064568277">
        <time>2026-03-13T11:13:56Z</time>
      </trkpt>
      <trkpt lat="31.48930153701985" lon="120.26168663600676">
        <time>2026-03-13T11:13:59Z</time>
      </trkpt>
      <trkpt lat="31.489393529056418" lon="120.26167462790227">
        <time>2026-03-13T11:14:02Z</time>
      </trkpt>
      <trkpt lat="31.489463535335105" lon="120.26164562135278">
        <time>2026-03-13T11:14:05Z</time>
      </trkpt>
      <trkpt lat="31.48951756097781" lon="120.26158961556303">
        <time>2026-03-13T11:14:08Z</time>
      </trkpt>
      <trkpt lat="31.489560591433612" lon="120.26152861045878">
        <time>2026-03-13T11:14:11Z</time>
      </trkpt>
      <trkpt lat="31.489584614494042" lon="120.26148460727887">
        <time>2026-03-13T11:14:14Z</time>
      </trkpt>
      <trkpt lat="31.48959862811861" lon="120.26145860537608">
        <time>2026-03-13T11:14:17Z</time>
      </trkpt>
      <trkpt lat="31.489616630628348" lon="120.26144960358269">
        <time>2026-03-13T11:14:20Z</time>
      </trkpt>
      <trkpt lat="31.489633636367454" lon="120.26143560172926">
        <time>2026-03-13T11:14:23Z</time>
      </trkpt>
      <trkpt lat="31.48954463899703" lon="120.2614556099235">
        <time>2026-03-13T11:14:35Z</time>
      </trkpt>
      <trkpt lat="31.489480628831483" lon="120.26148961632826">
        <time>2026-03-13T11:14:38Z</time>
      </trkpt>
      <trkpt lat="31.48936560682881" lon="120.26155662784987">
        <time>2026-03-13T11:14:41Z</time>
      </trkpt>
      <trkpt lat="31.489200556451454" lon="120.2616826445959">
        <time>2026-03-13T11:14:44Z</time>
      </trkpt>
      <trkpt lat="31.489107494693634" lon="120.26180665445774">
        <time>2026-03-13T11:14:47Z</time>
      </trkpt>
      <trkpt lat="31.489034508209418" lon="120.26180466069201">
        <time>2026-03-13T11:14:50Z</time>
      </trkpt>
      <trkpt lat="31.48891767278781" lon="120.26157166660926">
        <time>2026-03-13T11:14:53Z</time>
      </trkpt>
      <trkpt lat="31.488798918902486" lon="120.26120166545742">
        <time>2026-03-13T11:14:56Z</time>
      </trkpt>
      <trkpt lat="31.488694119832402" lon="120.26089566059106">
        <time>2026-03-13T11:14:59Z</time>
      </trkpt>
      <trkpt lat="31.48859719415051" lon="120.26079766360786">
        <time>2026-03-13T11:15:02Z</time>
      </trkpt>
      <trkpt lat="31.48851621311672" lon="120.26078867004541">
        <time>2026-03-13T11:15:05Z</time>
      </trkpt>
      <trkpt lat="31.488441216926358" lon="120.26080367732031">
        <time>2026-03-13T11:15:08Z</time>
      </trkpt>
      <trkpt lat="31.488364221663186" lon="120.26081768470159">
        <time>2026-03-13T11:15:11Z</time>
      </trkpt>
      <trkpt lat="31.48829022766627" lon="120.26082869165272">
        <time>2026-03-13T11:15:14Z</time>
      </trkpt>
      <trkpt lat="31.488226224883203" lon="120.2608516983907">
        <time>2026-03-13T11:15:17Z</time>
      </trkpt>
      <trkpt lat="31.48818020302975" lon="120.26090170497402">
        <time>2026-03-13T11:15:20Z</time>
      </trkpt>
      <trkpt lat="31.488127176317484" lon="120.26096171254223">
        <time>2026-03-13T11:15:23Z</time>
      </trkpt>
      <trkpt lat="31.488064145788695" lon="120.26103072122841">
        <time>2026-03-13T11:15:26Z</time>
      </trkpt>
      <trkpt lat="31.488011107991685" lon="120.26110872923707">
        <time>2026-03-13T11:15:29Z</time>
      </trkpt>
      <trkpt lat="31.487984061950836" lon="120.26119273498811">
        <time>2026-03-13T11:15:32Z</time>
      </trkpt>
      <trkpt lat="31.487975011392848" lon="120.26127873896104">
        <time>2026-03-13T11:15:35Z</time>
      </trkpt>
      <trkpt lat="31.487975958874134" lon="120.26136474175644">
        <time>2026-03-13T11:15:38Z</time>
      </trkpt>
      <trkpt lat="31.48799490181327" lon="120.2614527427443">
        <time>2026-03-13T11:15:41Z</time>
      </trkpt>
      <trkpt lat="31.48803284310632" lon="120.26153774169595">
        <time>2026-03-13T11:15:44Z</time>
      </trkpt>
      <trkpt lat="31.48808178537645" lon="120.2616177392892">
        <time>2026-03-13T11:15:47Z</time>
      </trkpt>
      <trkpt lat="31.488136730758985" lon="120.2616907359698">
        <time>2026-03-13T11:15:50Z</time>
      </trkpt>
      <trkpt lat="31.488203679544675" lon="120.26175473126001">
        <time>2026-03-13T11:15:53Z</time>
      </trkpt>
      <trkpt lat="31.488285637553115" lon="120.26179972485096">
        <time>2026-03-13T11:15:56Z</time>
      </trkpt>
      <trkpt lat="31.48836860348351" lon="120.26183171812333">
        <time>2026-03-13T11:15:59Z</time>
      </trkpt>
      <trkpt lat="31.488452589929445" lon="120.26183071090936">
        <time>2026-03-13T11:16:02Z</time>
      </trkpt>
      <trkpt lat="31.488537578723353" lon="120.26182570356302">
        <time>2026-03-13T11:16:05Z</time>
      </trkpt>
      <trkpt lat="31.488626566851227" lon="120.2618206958726">
        <time>2026-03-13T11:16:08Z</time>
      </trkpt>
      <trkpt lat="31.488713554698506" lon="120.26181668836472">
        <time>2026-03-13T11:16:11Z</time>
      </trkpt>
      <trkpt lat="31.4887945460701" lon="120.26180868132109">
        <time>2026-03-13T11:16:14Z</time>
      </trkpt>
      <trkpt lat="31.48887553369112" lon="120.26180667435072">
        <time>2026-03-13T11:16:17Z</time>
      </trkpt>
      <trkpt lat="31.48895751614198" lon="120.26181266739411">
        <time>2026-03-13T11:16:20Z</time>
      </trkpt>
      <trkpt lat="31.489043501060557" lon="120.26181366003225">
        <time>2026-03-13T11:16:23Z</time>
      </trkpt>
      <trkpt lat="31.489127485071204" lon="120.26181665286613">
        <time>2026-03-13T11:16:26Z</time>
      </trkpt>
      <trkpt lat="31.489203467926025" lon="120.26182364643317">
        <time>2026-03-13T11:16:29Z</time>
      </trkpt>
      <trkpt lat="31.4892814623585" lon="120.2618116396001">
        <time>2026-03-13T11:16:32Z</time>
      </trkpt>
      <trkpt lat="31.48935746776454" lon="120.26178263270762">
        <time>2026-03-13T11:16:35Z</time>
      </trkpt>
      <trkpt lat="31.4894214895072" lon="120.26173062645525">
        <time>2026-03-13T11:16:38Z</time>
      </trkpt>
      <trkpt lat="31.48947552091003" lon="120.26166562070509">
        <time>2026-03-13T11:16:41Z</time>
      </trkpt>
      <trkpt lat="31.48952555716459" lon="120.26159361496435">
        <time>2026-03-13T11:16:44Z</time>
      </trkpt>
      <trkpt lat="31.48956160665952" lon="120.26150360974582">
        <time>2026-03-13T11:16:47Z</time>
      </trkpt>
      <trkpt lat="31.489578666385356" lon="120.26140160544901">
        <time>2026-03-13T11:16:50Z</time>
      </trkpt>
      <trkpt lat="31.4895797350986" lon="120.2612886016926">
        <time>2026-03-13T11:16:53Z</time>
      </trkpt>
      <trkpt lat="31.489561811960208" lon="120.26116659865258">
        <time>2026-03-13T11:16:56Z</time>
      </trkpt>
      <trkpt lat="31.489541880233745" lon="120.26105859577208">
        <time>2026-03-13T11:16:59Z</time>
      </trkpt>
      <trkpt lat="31.489501938329283" lon="120.26097259518109">
        <time>2026-03-13T11:17:02Z</time>
      </trkpt>
      <trkpt lat="31.489450989102913" lon="120.2609015959929">
        <time>2026-03-13T11:17:05Z</time>
      </trkpt>
      <trkpt lat="31.48939003250469" lon="120.2608455982603">
        <time>2026-03-13T11:17:08Z</time>
      </trkpt>
      <trkpt lat="31.489326070404022" lon="120.26079960121223">
        <time>2026-03-13T11:17:11Z</time>
      </trkpt>
      <trkpt lat="31.48925209106938" lon="120.26078560676741">
        <time>2026-03-13T11:17:14Z</time>
      </trkpt>
      <trkpt lat="31.489180107865206" lon="120.26077761248585">
        <time>2026-03-13T11:17:17Z</time>
      </trkpt>
      <trkpt lat="31.48910511986884" lon="120.26077861897382">
        <time>2026-03-13T11:17:20Z</time>
      </trkpt>
      <trkpt lat="31.48903012657601" lon="120.26078862597289">
        <time>2026-03-13T11:17:23Z</time>
      </trkpt>
      <trkpt lat="31.488951135728446" lon="120.2607956331419">
        <time>2026-03-13T11:17:26Z</time>
      </trkpt>
      <trkpt lat="31.488871149773612" lon="120.26079463994515">
        <time>2026-03-13T11:17:29Z</time>
      </trkpt>
      <trkpt lat="31.488789164753086" lon="120.26079264686342">
        <time>2026-03-13T11:17:32Z</time>
      </trkpt>
      <trkpt lat="31.48871017864599" lon="120.26079165358074">
        <time>2026-03-13T11:17:35Z</time>
      </trkpt>
      <trkpt lat="31.48863019035691" lon="120.26079466060948">
        <time>2026-03-13T11:17:38Z</time>
      </trkpt>
      <trkpt lat="31.48854920165442" lon="120.26079866777974">
        <time>2026-03-13T11:17:41Z</time>
      </trkpt>
      <trkpt lat="31.48846921397067" lon="120.26080067475145">
        <time>2026-03-13T11:17:44Z</time>
      </trkpt>
      <trkpt lat="31.488392222247942" lon="120.26080868180092">
        <time>2026-03-13T11:17:47Z</time>
      </trkpt>
      <trkpt lat="31.488314223611244" lon="120.26082868959489">
        <time>2026-03-13T11:17:50Z</time>
      </trkpt>
      <trkpt lat="31.48823921617447" lon="120.26086269786596">
        <time>2026-03-13T11:17:53Z</time>
      </trkpt>
      <trkpt lat="31.488173194712438" lon="120.26091770639586">
        <time>2026-03-13T11:17:56Z</time>
      </trkpt>
      <trkpt lat="31.488116165660802" lon="120.26098271450684">
        <time>2026-03-13T11:17:59Z</time>
      </trkpt>
      <trkpt lat="31.48806412962415" lon="120.26105772245744">
        <time>2026-03-13T11:18:02Z</time>
      </trkpt>
      <trkpt lat="31.48801508746109" lon="120.26114173028041">
        <time>2026-03-13T11:18:05Z</time>
      </trkpt>
      <trkpt lat="31.488001031852875" lon="120.26123773524552">
        <time>2026-03-13T11:18:08Z</time>
      </trkpt>
      <trkpt lat="31.487992973068316" lon="120.26133673939592">
        <time>2026-03-13T11:18:11Z</time>
      </trkpt>
      <trkpt lat="31.488011908745" lon="120.26143674083578">
        <time>2026-03-13T11:18:14Z</time>
      </trkpt>
      <trkpt lat="31.488035846296818" lon="120.26153174129297">
        <time>2026-03-13T11:18:17Z</time>
      </trkpt>
      <trkpt lat="31.48808678453028" lon="120.26161773886051">
        <time>2026-03-13T11:18:20Z</time>
      </trkpt>
      <trkpt lat="31.488150723413465" lon="120.26169873490844">
        <time>2026-03-13T11:18:23Z</time>
      </trkpt>
      <trkpt lat="31.48822167088102" lon="120.261763729848">
        <time>2026-03-13T11:18:26Z</time>
      </trkpt>
      <trkpt lat="31.488294634780388" lon="120.26180172410488">
        <time>2026-03-13T11:18:29Z</time>
      </trkpt>
      <trkpt lat="31.488371610499424" lon="120.26181971772537">
        <time>2026-03-13T11:18:32Z</time>
      </trkpt>
      <trkpt lat="31.488451600126538" lon="120.2618147108054">
        <time>2026-03-13T11:18:35Z</time>
      </trkpt>
      <trkpt lat="31.48853658954374" lon="120.26180870344318">
        <time>2026-03-13T11:18:38Z</time>
      </trkpt>
      <trkpt lat="31.488622580678168" lon="120.26179969595529">
        <time>2026-03-13T11:18:41Z</time>
      </trkpt>
      <trkpt lat="31.488710561467585" lon="120.26180668849864">
        <time>2026-03-13T11:18:44Z</time>
      </trkpt>
      <trkpt lat="31.488796548238202" lon="120.2618046810994">
        <time>2026-03-13T11:18:47Z</time>
      </trkpt>
      <trkpt lat="31.48887253544816" lon="120.26180467458278">
        <time>2026-03-13T11:18:50Z</time>
      </trkpt>
      <trkpt lat="31.4889405246367" lon="120.26180366873943">
        <time>2026-03-13T11:18:53Z</time>
      </trkpt>
      <trkpt lat="31.489009519921655" lon="120.26179266268095">
        <time>2026-03-13T11:18:56Z</time>
      </trkpt>
      <trkpt lat="31.489086507609667" lon="120.26179165606536">
        <time>2026-03-13T11:18:59Z</time>
      </trkpt>
      <trkpt lat="31.489176476844552" lon="120.26181664866458">
        <time>2026-03-13T11:19:02Z</time>
      </trkpt>
      <trkpt lat="31.489265458776764" lon="120.26182164109318">
        <time>2026-03-13T11:19:05Z</time>
      </trkpt>
      <trkpt lat="31.48934245964334" lon="120.26179963421848">
        <time>2026-03-13T11:19:08Z</time>
      </trkpt>
      <trkpt lat="31.48941047263036" lon="120.26176062785382">
        <time>2026-03-13T11:19:11Z</time>
      </trkpt>
      <trkpt lat="31.48946850903101" lon="120.26168662168705">
        <time>2026-03-13T11:19:14Z</time>
      </trkpt>
      <trkpt lat="31.489524554238933" lon="120.26159861515826">
        <time>2026-03-13T11:19:17Z</time>
      </trkpt>
      <trkpt lat="31.48957260543373" lon="120.26150260877695">
        <time>2026-03-13T11:19:20Z</time>
      </trkpt>
      <trkpt lat="31.489597664428985" lon="120.26139960375964">
        <time>2026-03-13T11:19:23Z</time>
      </trkpt>
      <trkpt lat="31.489591732482918" lon="120.26128960069853">
        <time>2026-03-13T11:19:26Z</time>
      </trkpt>
      <trkpt lat="31.489575800566264" lon="120.26118159805041">
        <time>2026-03-13T11:19:29Z</time>
      </trkpt>
      <trkpt lat="31.489552864000906" lon="120.26108259589375">
        <time>2026-03-13T11:19:32Z</time>
      </trkpt>
      <trkpt lat="31.489525925365232" lon="120.26098759384756">
        <time>2026-03-13T11:19:35Z</time>
      </trkpt>
      <trkpt lat="31.489448983500814" lon="120.26091159667922">
        <time>2026-03-13T11:19:38Z</time>
      </trkpt>
      <trkpt lat="31.489374038734695" lon="120.26083959930669">
        <time>2026-03-13T11:19:41Z</time>
      </trkpt>
      <trkpt lat="31.489287075174502" lon="120.26080260472449">
        <time>2026-03-13T11:19:44Z</time>
      </trkpt>
      <trkpt lat="31.48919509237983" lon="120.26079961244493">
        <time>2026-03-13T11:19:47Z</time>
      </trkpt>
      <trkpt lat="31.489101110521087" lon="120.26079562028013">
        <time>2026-03-13T11:19:50Z</time>
      </trkpt>
      <trkpt lat="31.489008122017577" lon="120.26080262864745">
        <time>2026-03-13T11:19:53Z</time>
      </trkpt>
      <trkpt lat="31.488923130997218" lon="120.26081163643796">
        <time>2026-03-13T11:19:56Z</time>
      </trkpt>
      <trkpt lat="31.488841140659293" lon="120.26081864385719">
        <time>2026-03-13T11:19:59Z</time>
      </trkpt>
      <trkpt lat="31.48875915150953" lon="120.26082365116417">
        <time>2026-03-13T11:20:02Z</time>
      </trkpt>
      <trkpt lat="31.48867816633416" lon="120.2608216579992">
        <time>2026-03-13T11:20:05Z</time>
      </trkpt>
      <trkpt lat="31.48859918673354" lon="120.2608096641078">
        <time>2026-03-13T11:20:08Z</time>
      </trkpt>
      <trkpt lat="31.488518203933673" lon="120.26080367071809">
        <time>2026-03-13T11:20:11Z</time>
      </trkpt>
      <trkpt lat="31.488433217096635" lon="120.26080567811807">
        <time>2026-03-13T11:20:14Z</time>
      </trkpt>
      <trkpt lat="31.488351223268243" lon="120.26081868587157">
        <time>2026-03-13T11:20:17Z</time>
      </trkpt>
      <trkpt lat="31.488264221418174" lon="120.2608466948626">
        <time>2026-03-13T11:20:20Z</time>
      </trkpt>
      <trkpt lat="31.4881842035403" lon="120.26089970452757">
        <time>2026-03-13T11:20:23Z</time>
      </trkpt>
      <trkpt lat="31.488122176567675" lon="120.26096271302">
        <time>2026-03-13T11:20:26Z</time>
      </trkpt>
      <trkpt lat="31.48807614435586" lon="120.26102972015339">
        <time>2026-03-13T11:20:29Z</time>
      </trkpt>
      <trkpt lat="31.48803710719511" lon="120.26110272675065">
        <time>2026-03-13T11:20:32Z</time>
      </trkpt>
      <trkpt lat="31.48799906665664" lon="120.26118073322984">
        <time>2026-03-13T11:20:35Z</time>
      </trkpt>
      <trkpt lat="31.487993008951516" lon="120.2612777373823">
        <time>2026-03-13T11:20:38Z</time>
      </trkpt>
      <trkpt lat="31.487994948941235" lon="120.26137574047277">
        <time>2026-03-13T11:20:41Z</time>
      </trkpt>
      <trkpt lat="31.488013885091505" lon="120.26147474171712">
        <time>2026-03-13T11:20:44Z</time>
      </trkpt>
      <trkpt lat="31.488049822952153" lon="120.26156574089791">
        <time>2026-03-13T11:20:47Z</time>
      </trkpt>
      <trkpt lat="31.48809976683442" lon="120.26164273824999">
        <time>2026-03-13T11:20:50Z</time>
      </trkpt>
      <trkpt lat="31.48816171096848" lon="120.26171573425157">
        <time>2026-03-13T11:20:53Z</time>
      </trkpt>
      <trkpt lat="31.488238658633424" lon="120.26177872860156">
        <time>2026-03-13T11:20:56Z</time>
      </trkpt>
      <trkpt lat="31.488320623499284" lon="120.26181272201333">
        <time>2026-03-13T11:20:59Z</time>
      </trkpt>
      <trkpt lat="31.488395596415657" lon="120.26183571585378">
        <time>2026-03-13T11:21:02Z</time>
      </trkpt>
      <trkpt lat="31.488480583323035" lon="120.26183370854288">
        <time>2026-03-13T11:21:05Z</time>
      </trkpt>
      <trkpt lat="31.488574573110526" lon="120.26182470037874">
        <time>2026-03-13T11:21:08Z</time>
      </trkpt>
      <trkpt lat="31.488660562374527" lon="120.26181869293333">
        <time>2026-03-13T11:21:11Z</time>
      </trkpt>
      <trkpt lat="31.488744546344183" lon="120.26182168576666">
        <time>2026-03-13T11:21:14Z</time>
      </trkpt>
      <trkpt lat="31.488830533119557" lon="120.26181967836871">
        <time>2026-03-13T11:21:17Z</time>
      </trkpt>
      <trkpt lat="31.488913523541154" lon="120.26181267116691">
        <time>2026-03-13T11:21:20Z</time>
      </trkpt>
      <trkpt lat="31.488992514642003" lon="120.26180566430595">
        <time>2026-03-13T11:21:23Z</time>
      </trkpt>
      <trkpt lat="31.489075501946996" lon="120.26180365716378">
        <time>2026-03-13T11:21:26Z</time>
      </trkpt>
      <trkpt lat="31.48916249297021" lon="120.26179464958805">
        <time>2026-03-13T11:21:29Z</time>
      </trkpt>
      <trkpt lat="31.489253481452483" lon="120.26178864170599">
        <time>2026-03-13T11:21:32Z</time>
      </trkpt>
      <trkpt lat="31.489350481437423" lon="120.26176263302759">
        <time>2026-03-13T11:21:35Z</time>
      </trkpt>
      <trkpt lat="31.48942451329209" lon="120.261691625548">
        <time>2026-03-13T11:21:38Z</time>
      </trkpt>
      <trkpt lat="31.489494551215962" lon="120.26161161800684">
        <time>2026-03-13T11:21:41Z</time>
      </trkpt>
      <trkpt lat="31.48954860144955" lon="120.26151561116497">
        <time>2026-03-13T11:21:44Z</time>
      </trkpt>
      <trkpt lat="31.489581658541482" lon="120.26141360554914">
        <time>2026-03-13T11:21:47Z</time>
      </trkpt>
      <trkpt lat="31.48959571600483" lon="120.26131560124794">
        <time>2026-03-13T11:21:50Z</time>
      </trkpt>
      <trkpt lat="31.489589773443015" lon="120.26122259843557">
        <time>2026-03-13T11:21:53Z</time>
      </trkpt>
      <trkpt lat="31.489569830504408" lon="120.26113359661606">
        <time>2026-03-13T11:21:56Z</time>
      </trkpt>
      <trkpt lat="31.489558888766624" lon="120.26103959345366">
        <time>2026-03-13T11:21:59Z</time>
      </trkpt>
      <trkpt lat="31.48953694378868" lon="120.26095359124837">
        <time>2026-03-13T11:22:02Z</time>
      </trkpt>
      <trkpt lat="31.48947199626309" lon="120.26088359325465">
        <time>2026-03-13T11:22:05Z</time>
      </trkpt>
      <trkpt lat="31.489401049570873" lon="120.26081359556277">
        <time>2026-03-13T11:22:08Z</time>
      </trkpt>
      <trkpt lat="31.489321084210086" lon="120.2607776003957">
        <time>2026-03-13T11:22:11Z</time>
      </trkpt>
      <trkpt lat="31.489225105024158" lon="120.26076960816928">
        <time>2026-03-13T11:22:14Z</time>
      </trkpt>
      <trkpt lat="31.489125118277165" lon="120.2607756170876">
        <time>2026-03-13T11:22:17Z</time>
      </trkpt>
      <trkpt lat="31.48903112994396" lon="120.26078262554675">
        <time>2026-03-13T11:22:20Z</time>
      </trkpt>
      <trkpt lat="31.488940140526115" lon="120.26079063380305">
        <time>2026-03-13T11:22:23Z</time>
      </trkpt>
      <trkpt lat="31.48884815246417" lon="120.26079664202986">
        <time>2026-03-13T11:22:26Z</time>
      </trkpt>
      <trkpt lat="31.48875716660267" lon="120.26079864994503">
        <time>2026-03-13T11:22:29Z</time>
      </trkpt>
      <trkpt lat="31.4886681821839" lon="120.26079765752006">
        <time>2026-03-13T11:22:32Z</time>
      </trkpt>
      <trkpt lat="31.48858119566848" lon="120.2607996650921">
        <time>2026-03-13T11:22:35Z</time>
      </trkpt>
      <trkpt lat="31.488494212701244" lon="120.26079567232692">
        <time>2026-03-13T11:22:38Z</time>
      </trkpt>
      <trkpt lat="31.48840422494203" lon="120.26080068032475">
        <time>2026-03-13T11:22:41Z</time>
      </trkpt>
      <trkpt lat="31.488316226818036" lon="120.26082268909343">
        <time>2026-03-13T11:22:44Z</time>
      </trkpt>
      <trkpt lat="31.488231219303017" lon="120.26085969839154">
        <time>2026-03-13T11:22:47Z</time>
      </trkpt>
      <trkpt lat="31.488159191731807" lon="120.26092670805352">
        <time>2026-03-13T11:22:50Z</time>
      </trkpt>
      <trkpt lat="31.488096155316722" lon="120.2610057173185">
        <time>2026-03-13T11:22:53Z</time>
      </trkpt>
      <trkpt lat="31.488037104190653" lon="120.26110772696504">
        <time>2026-03-13T11:22:56Z</time>
      </trkpt>
      <trkpt lat="31.487998042047153" lon="120.261221734903">
        <time>2026-03-13T11:22:59Z</time>
      </trkpt>
      <trkpt lat="31.487985979126666" lon="120.26132873973191">
        <time>2026-03-13T11:23:02Z</time>
      </trkpt>
      <trkpt lat="31.487990925775353" lon="120.26141474199831">
        <time>2026-03-13T11:23:05Z</time>
      </trkpt>
      <trkpt lat="31.488000892205516" lon="120.2614667426153">
        <time>2026-03-13T11:23:08Z</time>
      </trkpt>
      <trkpt lat="31.48800887303127" lon="120.26149574270087">
        <time>2026-03-13T11:23:11Z</time>
      </trkpt>
      <trkpt lat="31.4880218529802" lon="120.26152474232137">
        <time>2026-03-13T11:23:14Z</time>
      </trkpt>
      <trkpt lat="31.48804482256345" lon="120.26156774137243">
        <time>2026-03-13T11:23:17Z</time>
      </trkpt>
      <trkpt lat="31.488071789546147" lon="120.26161374006347">
        <time>2026-03-13T11:23:20Z</time>
      </trkpt>
      <trkpt lat="31.48810375871151" lon="120.26165473813941">
        <time>2026-03-13T11:23:23Z</time>
      </trkpt>
      <trkpt lat="31.488132732679627" lon="120.26168873627758">
        <time>2026-03-13T11:23:26Z</time>
      </trkpt>
      <trkpt lat="31.48816571216054" lon="120.26171273385897">
        <time>2026-03-13T11:23:29Z</time>
      </trkpt>
      <trkpt lat="31.48819569212936" lon="120.26173673167273">
        <time>2026-03-13T11:23:32Z</time>
      </trkpt>
      <trkpt lat="31.488217675928915" lon="120.2617567300891">
        <time>2026-03-13T11:23:35Z</time>
        <extensions>
          <gpxtpx:TrackPointExtension>
            <gpxtpx:hr>103</gpxtpx:hr>
          </gpxtpx:TrackPointExtension>
        </extensions>
      </trkpt>
      <trkpt lat="31.488240660795807" lon="120.26177472837469">
        <time>2026-03-13T11:23:38Z</time>
        <extensions>
          <gpxtpx:TrackPointExtension>
            <gpxtpx:hr>103</gpxtpx:hr>
          </gpxtpx:TrackPointExtension>
        </extensions>
      </trkpt>
      <trkpt lat="31.488279645450206" lon="120.26178872522148">
        <time>2026-03-13T11:23:41Z</time>
        <extensions>
          <gpxtpx:TrackPointExtension>
            <gpxtpx:hr>103</gpxtpx:hr>
          </gpxtpx:TrackPointExtension>
        </extensions>
      </trkpt>
      <trkpt lat="31.488313639705346" lon="120.2617887223062">
        <time>2026-03-13T11:23:44Z</time>
        <extensions>
          <gpxtpx:TrackPointExtension>
            <gpxtpx:hr>103</gpxtpx:hr>
          </gpxtpx:TrackPointExtension>
        </extensions>
      </trkpt>
      <trkpt lat="31.488332633993146" lon="120.26179272073001">
        <time>2026-03-13T11:23:47Z</time>
        <extensions>
          <gpxtpx:TrackPointExtension>
            <gpxtpx:hr>103</gpxtpx:hr>
          </gpxtpx:TrackPointExtension>
        </extensions>
      </trkpt>
      <trkpt lat="31.488374618762553" lon="120.26180571729611">
        <time>2026-03-13T11:23:50Z</time>
        <extensions>
          <gpxtpx:TrackPointExtension>
            <gpxtpx:hr>103</gpxtpx:hr>
          </gpxtpx:TrackPointExtension>
        </extensions>
      </trkpt>
      <trkpt lat="31.488220571906812" lon="120.26192173167088">
        <time>2026-03-13T11:25:02Z</time>
      </trkpt>
      <trkpt lat="31.488200575288307" lon="120.26192173338575">
        <time>2026-03-13T11:25:05Z</time>
      </trkpt>
      <trkpt lat="31.488178578378182" lon="120.26192273527967">
        <time>2026-03-13T11:25:08Z</time>
      </trkpt>
      <trkpt lat="31.488154578654456" lon="120.261928737382">
        <time>2026-03-13T11:25:11Z</time>
      </trkpt>
      <trkpt lat="31.48812758069921" lon="120.26193273972585">
        <time>2026-03-13T11:25:14Z</time>
      </trkpt>
      <trkpt lat="31.48810558505216" lon="120.26193174160507">
        <time>2026-03-13T11:25:17Z</time>
      </trkpt>
      <trkpt lat="31.48807858899049" lon="120.26193274392725">
        <time>2026-03-13T11:25:20Z</time>
      </trkpt>
      <trkpt lat="31.488052591498832" lon="120.26193574617771">
        <time>2026-03-13T11:25:23Z</time>
      </trkpt>
      <trkpt lat="31.488019598347133" lon="120.26193374899316">
        <time>2026-03-13T11:25:26Z</time>
      </trkpt>
      <trkpt lat="31.487981609196453" lon="120.26192675220082">
        <time>2026-03-13T11:25:29Z</time>
      </trkpt>
      <trkpt lat="31.48794561781607" lon="120.26192275525771">
        <time>2026-03-13T11:25:32Z</time>
      </trkpt>
      <trkpt lat="31.487902625101768" lon="120.26192275894464">
        <time>2026-03-13T11:25:35Z</time>
      </trkpt>
      <trkpt lat="31.487857628315382" lon="120.2619297628548">
        <time>2026-03-13T11:25:38Z</time>
      </trkpt>
      <trkpt lat="31.48782362650973" lon="120.26194176585385">
        <time>2026-03-13T11:25:41Z</time>
      </trkpt>
      <trkpt lat="31.487797628394265" lon="120.26194576810968">
        <time>2026-03-13T11:25:44Z</time>
      </trkpt>
      <trkpt lat="31.487771629647714" lon="120.26195077037121">
        <time>2026-03-13T11:25:47Z</time>
      </trkpt>
      <trkpt lat="31.487739625601776" lon="120.26196577320518">
        <time>2026-03-13T11:25:50Z</time>
      </trkpt>
      <trkpt lat="31.48771161770751" lon="120.26198577571118">
        <time>2026-03-13T11:25:53Z</time>
      </trkpt>
      <trkpt lat="31.487696606326605" lon="120.26200777709313">
        <time>2026-03-13T11:25:56Z</time>
      </trkpt>
      <trkpt lat="31.48768458997901" lon="120.26203677821653">
        <time>2026-03-13T11:25:59Z</time>
      </trkpt>
      <trkpt lat="31.487672572965867" lon="120.26206677930503">
        <time>2026-03-13T11:26:02Z</time>
      </trkpt>
      <trkpt lat="31.487661558933446" lon="120.26209178026826">
        <time>2026-03-13T11:26:05Z</time>
      </trkpt>
      <trkpt lat="31.487652543901827" lon="120.26211778103227">
        <time>2026-03-13T11:26:08Z</time>
      </trkpt>
      <trkpt lat="31.487639532078134" lon="120.2621397821177">
        <time>2026-03-13T11:26:11Z</time>
        <extensions>
          <gpxtpx:TrackPointExtension>
            <gpxtpx:hr>103</gpxtpx:hr>
          </gpxtpx:TrackPointExtension>
        </extensions>
      </trkpt>
      <trkpt lat="31.4876275149547" lon="120.26216978307318">
        <time>2026-03-13T11:26:14Z</time>
        <extensions>
          <gpxtpx:TrackPointExtension>
            <gpxtpx:hr>103</gpxtpx:hr>
          </gpxtpx:TrackPointExtension>
        </extensions>
      </trkpt>
      <trkpt lat="31.48761949647952" lon="120.26220078364256">
        <time>2026-03-13T11:26:17Z</time>
        <extensions>
          <gpxtpx:TrackPointExtension>
            <gpxtpx:hr>103</gpxtpx:hr>
          </gpxtpx:TrackPointExtension>
        </extensions>
      </trkpt>
      <trkpt lat="31.487617481440367" lon="120.2622247836954">
        <time>2026-03-13T11:26:20Z</time>
        <extensions>
          <gpxtpx:TrackPointExtension>
            <gpxtpx:hr>103</gpxtpx:hr>
          </gpxtpx:TrackPointExtension>
        </extensions>
      </trkpt>
      <trkpt lat="31.48762146343525" lon="120.26225178318936">
        <time>2026-03-13T11:26:23Z</time>
        <extensions>
          <gpxtpx:TrackPointExtension>
            <gpxtpx:hr>103</gpxtpx:hr>
          </gpxtpx:TrackPointExtension>
        </extensions>
      </trkpt>
      <trkpt lat="31.487629441508563" lon="120.26228378226955">
        <time>2026-03-13T11:26:26Z</time>
        <extensions>
          <gpxtpx:TrackPointExtension>
            <gpxtpx:hr>103</gpxtpx:hr>
          </gpxtpx:TrackPointExtension>
        </extensions>
      </trkpt>
      <trkpt lat="31.48763141991953" lon="120.26231678181074">
        <time>2026-03-13T11:26:29Z</time>
        <extensions>
          <gpxtpx:TrackPointExtension>
            <gpxtpx:hr>103</gpxtpx:hr>
          </gpxtpx:TrackPointExtension>
        </extensions>
      </trkpt>
      <trkpt lat="31.48762739801881" lon="120.26235178179782">
        <time>2026-03-13T11:26:32Z</time>
      </trkpt>
      <trkpt lat="31.487624373316" lon="120.26239078159647">
        <time>2026-03-13T11:26:35Z</time>
      </trkpt>
      <trkpt lat="31.487620347431307" lon="120.26243178138685">
        <time>2026-03-13T11:26:38Z</time>
      </trkpt>
      <trkpt lat="31.487621321287392" lon="120.26247178069241">
        <time>2026-03-13T11:26:41Z</time>
      </trkpt>
      <trkpt lat="31.487633280181093" lon="120.26253177862164">
        <time>2026-03-13T11:26:44Z</time>
      </trkpt>
      <trkpt lat="31.4876813973102" lon="120.26382671437368">
        <time>2026-03-13T11:28:47Z</time>
        <extensions>
          <gpxtpx:TrackPointExtension>
            <gpxtpx:hr>103</gpxtpx:hr>
          </gpxtpx:TrackPointExtension>
        </extensions>
      </trkpt>
      <trkpt lat="31.48768937498529" lon="120.26385671144861">
        <time>2026-03-13T11:28:50Z</time>
        <extensions>
          <gpxtpx:TrackPointExtension>
            <gpxtpx:hr>103</gpxtpx:hr>
          </gpxtpx:TrackPointExtension>
        </extensions>
      </trkpt>
      <trkpt lat="31.487690358018956" lon="120.26388070954401">
        <time>2026-03-13T11:28:53Z</time>
        <extensions>
          <gpxtpx:TrackPointExtension>
            <gpxtpx:hr>103</gpxtpx:hr>
          </gpxtpx:TrackPointExtension>
        </extensions>
      </trkpt>
      <trkpt lat="31.487689340670514" lon="120.26390570770909">
        <time>2026-03-13T11:28:56Z</time>
        <extensions>
          <gpxtpx:TrackPointExtension>
            <gpxtpx:hr>103</gpxtpx:hr>
          </gpxtpx:TrackPointExtension>
        </extensions>
      </trkpt>
      <trkpt lat="31.48767632042152" lon="120.2639377063265">
        <time>2026-03-13T11:28:59Z</time>
        <extensions>
          <gpxtpx:TrackPointExtension>
            <gpxtpx:hr>103</gpxtpx:hr>
          </gpxtpx:TrackPointExtension>
        </extensions>
      </trkpt>
      <trkpt lat="31.487647310588493" lon="120.26395870715062">
        <time>2026-03-13T11:29:02Z</time>
        <extensions>
          <gpxtpx:TrackPointExtension>
            <gpxtpx:hr>103</gpxtpx:hr>
          </gpxtpx:TrackPointExtension>
        </extensions>
      </trkpt>
      <trkpt lat="31.48760431085806" lon="120.26396871003939">
        <time>2026-03-13T11:29:05Z</time>
        <extensions>
          <gpxtpx:TrackPointExtension>
            <gpxtpx:hr>103</gpxtpx:hr>
          </gpxtpx:TrackPointExtension>
        </extensions>
      </trkpt>
      <trkpt lat="31.487548315446215" lon="120.26397571427977">
        <time>2026-03-13T11:29:08Z</time>
        <extensions>
          <gpxtpx:TrackPointExtension>
            <gpxtpx:hr>103</gpxtpx:hr>
          </gpxtpx:TrackPointExtension>
        </extensions>
      </trkpt>
      <trkpt lat="31.487488329864185" lon="120.26396971990563">
        <time>2026-03-13T11:29:11Z</time>
      </trkpt>
      <trkpt lat="31.48741934581598" lon="120.26396372630167">
        <time>2026-03-13T11:29:14Z</time>
      </trkpt>
      <trkpt lat="31.48735935320923" lon="120.26396773112664">
        <time>2026-03-13T11:29:17Z</time>
      </trkpt>
      <trkpt lat="31.48730336414598" lon="120.26396573608815">
        <time>2026-03-13T11:29:20Z</time>
        <extensions>
          <gpxtpx:TrackPointExtension>
            <gpxtpx:hr>103</gpxtpx:hr>
          </gpxtpx:TrackPointExtension>
        </extensions>
      </trkpt>
      <trkpt lat="31.48724638720653" lon="120.26394674248611">
        <time>2026-03-13T11:29:23Z</time>
        <extensions>
          <gpxtpx:TrackPointExtension>
            <gpxtpx:hr>103</gpxtpx:hr>
          </gpxtpx:TrackPointExtension>
        </extensions>
      </trkpt>
      <trkpt lat="31.487189406748175" lon="120.26393274847669">
        <time>2026-03-13T11:29:26Z</time>
        <extensions>
          <gpxtpx:TrackPointExtension>
            <gpxtpx:hr>103</gpxtpx:hr>
          </gpxtpx:TrackPointExtension>
        </extensions>
      </trkpt>
      <trkpt lat="31.487130422417405" lon="120.26392475416219">
        <time>2026-03-13T11:29:29Z</time>
        <extensions>
          <gpxtpx:TrackPointExtension>
            <gpxtpx:hr>103</gpxtpx:hr>
          </gpxtpx:TrackPointExtension>
        </extensions>
      </trkpt>
      <trkpt lat="31.487071435282225" lon="120.26392075953332">
        <time>2026-03-13T11:29:32Z</time>
        <extensions>
          <gpxtpx:TrackPointExtension>
            <gpxtpx:hr>103</gpxtpx:hr>
          </gpxtpx:TrackPointExtension>
        </extensions>
      </trkpt>
      <trkpt lat="31.487005452150903" lon="120.26391276581492">
        <time>2026-03-13T11:29:35Z</time>
        <extensions>
          <gpxtpx:TrackPointExtension>
            <gpxtpx:hr>103</gpxtpx:hr>
          </gpxtpx:TrackPointExtension>
        </extensions>
      </trkpt>
      <trkpt lat="31.486936473740982" lon="120.26389877281412">
        <time>2026-03-13T11:29:38Z</time>
        <extensions>
          <gpxtpx:TrackPointExtension>
            <gpxtpx:hr>103</gpxtpx:hr>
          </gpxtpx:TrackPointExtension>
        </extensions>
      </trkpt>
      <trkpt lat="31.486870499019723" lon="120.26387878000577">
        <time>2026-03-13T11:29:41Z</time>
      </trkpt>
      <trkpt lat="31.486808518709008" lon="120.26386578630887">
        <time>2026-03-13T11:29:44Z</time>
      </trkpt>
      <trkpt lat="31.48675752392416" lon="120.26387079030285">
        <time>2026-03-13T11:29:47Z</time>
      </trkpt>
      <trkpt lat="31.486706520737883" lon="120.26388779337974">
        <time>2026-03-13T11:29:50Z</time>
      </trkpt>
      <trkpt lat="31.486647520315106" lon="120.26390279728481">
        <time>2026-03-13T11:29:53Z</time>
      </trkpt>
      <trkpt lat="31.48658452898978" lon="120.26390580245462">
        <time>2026-03-13T11:29:56Z</time>
      </trkpt>
      <trkpt lat="31.48652354363678" lon="120.26389980814818">
        <time>2026-03-13T11:29:59Z</time>
      </trkpt>
      <trkpt lat="31.486463560217977" lon="120.26389081398479">
        <time>2026-03-13T11:30:02Z</time>
      </trkpt>
      <trkpt lat="31.486402574871065" lon="120.26388481967449">
        <time>2026-03-13T11:30:05Z</time>
      </trkpt>
      <trkpt lat="31.486341585325643" lon="120.26388482490464">
        <time>2026-03-13T11:30:08Z</time>
      </trkpt>
      <trkpt lat="31.486278592625343" lon="120.2638898299234">
        <time>2026-03-13T11:30:11Z</time>
      </trkpt>
      <trkpt lat="31.486213598870684" lon="120.2638968349587">
        <time>2026-03-13T11:30:14Z</time>
      </trkpt>
      <trkpt lat="31.48615561302924" lon="120.26389084039268">
        <time>2026-03-13T11:30:17Z</time>
      </trkpt>
      <trkpt lat="31.486103627561157" lon="120.2638828454635">
        <time>2026-03-13T11:30:20Z</time>
      </trkpt>
      <trkpt lat="31.486048634206192" lon="120.26388684987329">
        <time>2026-03-13T11:30:23Z</time>
      </trkpt>
      <trkpt lat="31.48598764048431" lon="120.26389285464332">
        <time>2026-03-13T11:30:26Z</time>
      </trkpt>
      <trkpt lat="31.48593064607806" lon="120.26389885906885">
        <time>2026-03-13T11:30:29Z</time>
      </trkpt>
      <trkpt lat="31.48586765551097" lon="120.26390086431618">
        <time>2026-03-13T11:30:32Z</time>
      </trkpt>
      <trkpt lat="31.48579266140439" lon="120.26391086997302">
        <time>2026-03-13T11:30:35Z</time>
      </trkpt>
      <trkpt lat="31.48571466992291" lon="120.26391787611657">
        <time>2026-03-13T11:30:38Z</time>
      </trkpt>
      <trkpt lat="31.485639675824732" lon="120.26392788176614">
        <time>2026-03-13T11:30:41Z</time>
      </trkpt>
      <trkpt lat="31.485573680880805" lon="120.26393688671848">
        <time>2026-03-13T11:30:44Z</time>
      </trkpt>
      <trkpt lat="31.485519686679954" lon="120.26394189095441">
        <time>2026-03-13T11:30:47Z</time>
      </trkpt>
      <trkpt lat="31.485471699173438" lon="120.26393589554236">
        <time>2026-03-13T11:30:50Z</time>
      </trkpt>
      <trkpt lat="31.485432719238634" lon="120.26391690037241">
        <time>2026-03-13T11:30:53Z</time>
      </trkpt>
      <trkpt lat="31.48539273806372" lon="120.26389990511872">
        <time>2026-03-13T11:30:56Z</time>
      </trkpt>
      <trkpt lat="31.48534175457725" lon="120.26388891033682">
        <time>2026-03-13T11:30:59Z</time>
      </trkpt>
      <trkpt lat="31.48529477179906" lon="120.26387591535904">
        <time>2026-03-13T11:31:02Z</time>
      </trkpt>
      <trkpt lat="31.485246783592178" lon="120.26387091985426">
        <time>2026-03-13T11:31:05Z</time>
      </trkpt>
      <trkpt lat="31.485184793608358" lon="120.26387192509404">
        <time>2026-03-13T11:31:08Z</time>
      </trkpt>
      <trkpt lat="31.485099797804242" lon="120.26388693123819">
        <time>2026-03-13T11:31:11Z</time>
      </trkpt>
      <trkpt lat="31.485003801100955" lon="120.26390593800679">
        <time>2026-03-13T11:31:14Z</time>
      </trkpt>
      <trkpt lat="31.484902810876214" lon="120.26391694581262">
        <time>2026-03-13T11:31:17Z</time>
      </trkpt>
      <trkpt lat="31.484807830846496" lon="120.26391195434604">
        <time>2026-03-13T11:31:20Z</time>
      </trkpt>
      <trkpt lat="31.48472985699102" lon="120.26389396242342">
        <time>2026-03-13T11:31:23Z</time>
      </trkpt>
      <trkpt lat="31.484663883149352" lon="120.26387296968623">
        <time>2026-03-13T11:31:26Z</time>
      </trkpt>
      <trkpt lat="31.484597911395124" lon="120.26384897715526">
        <time>2026-03-13T11:31:29Z</time>
      </trkpt>
      <trkpt lat="31.48452494572908" lon="120.2638179857162">
        <time>2026-03-13T11:31:32Z</time>
      </trkpt>
      <trkpt lat="31.48444798212469" lon="120.26378499472368">
        <time>2026-03-13T11:31:35Z</time>
      </trkpt>
      <trkpt lat="31.48437801935878" lon="120.26374900329687">
        <time>2026-03-13T11:31:38Z</time>
      </trkpt>
      <trkpt lat="31.484311058113892" lon="120.2637100117649">
        <time>2026-03-13T11:31:41Z</time>
      </trkpt>
      <trkpt lat="31.484241095957124" lon="120.26367302029055">
        <time>2026-03-13T11:31:44Z</time>
      </trkpt>
      <trkpt lat="31.484172132892137" lon="120.26363702860627">
        <time>2026-03-13T11:31:47Z</time>
      </trkpt>
      <trkpt lat="31.484107173921686" lon="120.26359403697337">
        <time>2026-03-13T11:31:50Z</time>
      </trkpt>
      <trkpt lat="31.48404521849867" lon="120.26354504537716">
        <time>2026-03-13T11:31:53Z</time>
      </trkpt>
      <trkpt lat="31.48398326368174" lon="120.26349505373842">
        <time>2026-03-13T11:31:56Z</time>
      </trkpt>
      <trkpt lat="31.483921309465526" lon="120.26344406205077">
        <time>2026-03-13T11:31:59Z</time>
      </trkpt>
      <trkpt lat="31.483862351222808" lon="120.2633980697169">
        <time>2026-03-13T11:32:02Z</time>
      </trkpt>
      <trkpt lat="31.48379738509453" lon="120.26336507710475">
        <time>2026-03-13T11:32:05Z</time>
      </trkpt>
      <trkpt lat="31.48372941673354" lon="120.26333608449134">
        <time>2026-03-13T11:32:08Z</time>
      </trkpt>
      <trkpt lat="31.483656451261915" lon="120.26330409242598">
        <time>2026-03-13T11:32:11Z</time>
      </trkpt>
      <trkpt lat="31.48358348033026" lon="120.2632800999128">
        <time>2026-03-13T11:32:14Z</time>
      </trkpt>
      <trkpt lat="31.483515507831797" lon="120.2632571068967">
        <time>2026-03-13T11:32:17Z</time>
      </trkpt>
      <trkpt lat="31.4834475353203" lon="120.26323411385799">
        <time>2026-03-13T11:32:20Z</time>
      </trkpt>
      <trkpt lat="31.483370558282523" lon="120.26322012113692">
        <time>2026-03-13T11:32:23Z</time>
      </trkpt>
      <trkpt lat="31.48329558157097" lon="120.26320512828349">
        <time>2026-03-13T11:32:26Z</time>
      </trkpt>
      <trkpt lat="31.483225603981747" lon="120.26319013499179">
        <time>2026-03-13T11:32:29Z</time>
      </trkpt>
      <trkpt lat="31.483162623812227" lon="120.26317714099788">
        <time>2026-03-13T11:32:32Z</time>
      </trkpt>
      <trkpt lat="31.483100636716472" lon="120.26317414645169">
        <time>2026-03-13T11:32:35Z</time>
      </trkpt>
      <trkpt lat="31.483034641549004" lon="120.26318415164613">
        <time>2026-03-13T11:32:38Z</time>
      </trkpt>
      <trkpt lat="31.48295665930076" lon="120.2631781586116">
        <time>2026-03-13T11:32:41Z</time>
      </trkpt>
      <trkpt lat="31.482874685185703" lon="120.26316116642249">
        <time>2026-03-13T11:32:44Z</time>
      </trkpt>
      <trkpt lat="31.482800708987636" lon="120.2631451734903">
        <time>2026-03-13T11:32:47Z</time>
      </trkpt>
      <trkpt lat="31.482731726517994" lon="120.26313717976338">
        <time>2026-03-13T11:32:50Z</time>
      </trkpt>
      <trkpt lat="31.48266074575118" lon="120.26312718629349">
        <time>2026-03-13T11:32:53Z</time>
      </trkpt>
      <trkpt lat="31.482586771572173" lon="120.26310819346817">
        <time>2026-03-13T11:32:56Z</time>
      </trkpt>
      <trkpt lat="31.482510793033963" lon="120.26309620050019">
        <time>2026-03-13T11:32:59Z</time>
      </trkpt>
      <trkpt lat="31.482435809617094" lon="120.26309120714318">
        <time>2026-03-13T11:33:02Z</time>
      </trkpt>
      <trkpt lat="31.48236781892188" lon="120.26309521280182">
        <time>2026-03-13T11:33:05Z</time>
      </trkpt>
      <trkpt lat="31.482291825608527" lon="120.26310521888713">
        <time>2026-03-13T11:33:08Z</time>
      </trkpt>
      <trkpt lat="31.482214829109818" lon="120.26312022483526">
        <time>2026-03-13T11:33:11Z</time>
      </trkpt>
      <trkpt lat="31.48213783126296" lon="120.26313723068469">
        <time>2026-03-13T11:33:14Z</time>
      </trkpt>
      <trkpt lat="31.48206784296202" lon="120.26313823664086">
        <time>2026-03-13T11:33:17Z</time>
      </trkpt>
      <trkpt lat="31.482006870584616" lon="120.26311324297188">
        <time>2026-03-13T11:33:20Z</time>
      </trkpt>
      <trkpt lat="31.481948899674833" lon="120.2630852491462">
        <time>2026-03-13T11:33:23Z</time>
      </trkpt>
      <trkpt lat="31.48187991994846" lon="120.26307325556618">
        <time>2026-03-13T11:33:26Z</time>
      </trkpt>
      <trkpt lat="31.48179193754699" lon="120.26307026323519">
        <time>2026-03-13T11:33:29Z</time>
      </trkpt>
      <trkpt lat="31.48169494869175" lon="120.26307927117338">
        <time>2026-03-13T11:33:32Z</time>
      </trkpt>
      <trkpt lat="31.481600949228056" lon="120.26310327820909">
        <time>2026-03-13T11:33:35Z</time>
      </trkpt>
      <trkpt lat="31.48151594074709" lon="120.26313828396054">
        <time>2026-03-13T11:33:38Z</time>
      </trkpt>
      <trkpt lat="31.481440939229042" lon="120.2631602893981">
        <time>2026-03-13T11:33:41Z</time>
      </trkpt>
      <trkpt lat="31.481368948644967" lon="120.26316529534188">
        <time>2026-03-13T11:33:44Z</time>
      </trkpt>
      <trkpt lat="31.481314960265777" lon="120.26316230010801">
        <time>2026-03-13T11:33:47Z</time>
      </trkpt>
      <trkpt lat="31.481281971528713" lon="120.26315430330052">
        <time>2026-03-13T11:33:50Z</time>
      </trkpt>
      <trkpt lat="31.481252982753563" lon="120.26314530619234">
        <time>2026-03-13T11:33:53Z</time>
      </trkpt>
      <trkpt lat="31.48120399551252" lon="120.26313931066139">
        <time>2026-03-13T11:33:56Z</time>
      </trkpt>
      <trkpt lat="31.4811320110189" lon="120.26313531701163">
        <time>2026-03-13T11:33:59Z</time>
      </trkpt>
      <trkpt lat="31.481065024967275" lon="120.26313232288823">
        <time>2026-03-13T11:34:02Z</time>
      </trkpt>
      <trkpt lat="31.481009038308468" lon="120.26312732790984">
        <time>2026-03-13T11:34:05Z</time>
      </trkpt>
      <trkpt lat="31.480960053771344" lon="120.26311733254941">
        <time>2026-03-13T11:34:08Z</time>
      </trkpt>
      <trkpt lat="31.48092306642194" lon="120.26310833611272">
        <time>2026-03-13T11:34:11Z</time>
      </trkpt>
      <trkpt lat="31.480889075173703" lon="120.26310433920018">
        <time>2026-03-13T11:34:14Z</time>
      </trkpt>
      <trkpt lat="31.48085607702115" lon="120.2631103417693">
        <time>2026-03-13T11:34:17Z</time>
      </trkpt>
      <trkpt lat="31.480825076492565" lon="120.26311934403427">
        <time>2026-03-13T11:34:20Z</time>
      </trkpt>
      <trkpt lat="31.480786081429954" lon="120.2631223472458">
        <time>2026-03-13T11:34:23Z</time>
      </trkpt>
      <trkpt lat="31.480743081694445" lon="120.26313335044608">
        <time>2026-03-13T11:34:26Z</time>
      </trkpt>
      <trkpt lat="31.480705079041975" lon="120.26314735307781">
        <time>2026-03-13T11:34:29Z</time>
      </trkpt>
      <trkpt lat="31.480663087214825" lon="120.26314635672304">
        <time>2026-03-13T11:34:32Z</time>
      </trkpt>
      <trkpt lat="31.48060909281372" lon="120.2631523610815">
        <time>2026-03-13T11:34:35Z</time>
      </trkpt>
      <trkpt lat="31.4805540945456" lon="120.26316436525059">
        <time>2026-03-13T11:34:38Z</time>
      </trkpt>
      <trkpt lat="31.480516094587564" lon="120.26317436804867">
        <time>2026-03-13T11:34:41Z</time>
      </trkpt>
      <trkpt lat="31.48048409625673" lon="120.26318037051408">
        <time>2026-03-13T11:34:44Z</time>
      </trkpt>
      <trkpt lat="31.48045509806497" lon="120.26318537276742">
        <time>2026-03-13T11:34:47Z</time>
      </trkpt>
      <trkpt lat="31.48042809546071" lon="120.26319637456653">
        <time>2026-03-13T11:34:50Z</time>
      </trkpt>
      <trkpt lat="31.48040209199782" lon="120.26320837622717">
        <time>2026-03-13T11:34:53Z</time>
      </trkpt>
      <trkpt lat="31.48037509412272" lon="120.26321237835086">
        <time>2026-03-13T11:34:56Z</time>
      </trkpt>
      <trkpt lat="31.480341096147377" lon="120.26321838097796">
        <time>2026-03-13T11:34:59Z</time>
      </trkpt>
      <trkpt lat="31.480300106192836" lon="120.26321438468422">
        <time>2026-03-13T11:35:02Z</time>
      </trkpt>
      <trkpt lat="31.480255133180183" lon="120.26318638986469">
        <time>2026-03-13T11:35:05Z</time>
      </trkpt>
    </trkseg>
  </trk>
</gpx>